satname,norad_id,inclination_deg,eccentricity,mean_motion_rev_per_day,perigee_km,apogee_km,l1,l2
STARLINK-1152,45096,53.043,0.0005859,15.28832167,475.28444327369743,483.3199905480733,1 45096U 20006BE  25354.80951164  .00032106  00000+0  11377-2 0  9997,2 45096  53.0430 215.8028 0005859  71.5982 288.5653 15.28832167325488
STARLINK-1184,45098,53.0538,0.000199,15.06874163,544.3808424768549,547.1365529645482,1 45098U 20006BG  25353.96353615  .00010682  00000+0  72563-3 0  9992,2 45098  53.0538 244.5067 0001990 116.1945 243.9249 15.06874163325000
STARLINK-1193,45100,53.055,0.0001462,15.06400469,546.1976347721784,548.2226062702193,1 45100U 20006BJ  25354.42592648 -.00000867  00000+0 -39292-4 0  9998,2 45100  53.0550 242.4467 0001462  85.7118 274.4038 15.06400469325072
STARLINK-1143,45179,53.0523,1.17e-05,15.47484269,424.0087203911007,424.1678924632706,1 45179U 20012B   25354.42625612  .00086538  00000+0  16483-2 0  9991,2 45179  53.0523 352.8889 0000117 157.8409 202.2603 15.47484269323599
STARLINK-1202,45183,53.0555,0.0001063,15.06391338,546.5019384741809,547.9742732216828,1 45183U 20012F   25354.42224289  .00000985  00000+0  84990-4 0  9993,2 45183  53.0555  42.4683 0001063  88.0597 272.0514 15.06391338322894
STARLINK-1216,45185,53.0557,0.0001249,15.06388307,546.3824150199916,548.112376041996,1 45185U 20012H   25354.41486945  .00000026  00000+0  20635-4 0  9995,2 45185  53.0557  42.4982 0001249  91.0423 269.0709 15.06388307322836
STARLINK-1225,45187,53.0577,0.0001195,15.06391117,546.4112007815856,548.0663655937678,1 45187U 20012K   25354.43329812  .00000007  00000+0  19366-4 0  9996,2 45187  53.0577  42.4163 0001195  85.9597 274.1529 15.06391117322880
STARLINK-1230,45189,53.0573,0.0001481,15.0640769,546.1623486651888,548.2136299270187,1 45189U 20012M   25354.83505138  .00000760  00000+0  69927-4 0  9993,2 45189  53.0573  40.6138 0001481  93.0484 267.0675 15.06407690320170
STARLINK-1234,45190,53.0519,0.000941,15.445026,426.4308464769083,439.24910514538533,1 45190U 20012N   25354.25358036  .00091767  00000+0  19316-2 0  9996,2 45190  53.0519 348.3992 0009410  24.9582 335.1877 15.44502600323533
STARLINK-1269,45197,53.0547,0.0001167,15.06390411,546.432755391691,548.0491386045205,1 45197U 20012V   25354.51439019  .00000664  00000+0  63473-4 0  9994,2 45197  53.0547  42.0506 0001167  86.0853 274.0269 15.06390411322876
STARLINK-1154,45198,53.0571,0.000163,15.06408758,546.0558886199888,548.3135434994238,1 45198U 20012W   25354.77055566  .00005195  00000+0  36729-3 0  9991,2 45198  53.0571  20.9014 0001630  90.8068 269.3108 15.06408758323165
STARLINK-1199,45201,53.0531,0.0001267,15.06394239,546.3517707304181,548.1066585292065,1 45201U 20012Z   25354.78162044 -.00001673  00000+0 -93465-4 0  9997,2 45201  53.0531  20.8494 0001267  88.0832 272.0302 15.06394239323223
STARLINK-1209,45206,53.0531,0.0009869,15.37526948,446.682978073919,460.1671152416129,1 45206U 20012AE  25354.77974331  .00064389  00000+0  17169-2 0  9997,2 45206  53.0531 348.8073 0009869  28.0320 332.1213 15.37526948322727
STARLINK-1210,45207,53.0212,0.0004077,15.70578234,354.4973271342078,359.98935626483035,1 45207U 20012AF  25354.91668980  .00160039  00000+0  12539-2 0  9999,2 45207  53.0212 299.4966 0004077 146.8632  40.1707 15.70578234  6014
STARLINK-1231,45212,53.05,0.0001864,15.15442203,518.3506510607431,520.9221409827796,1 45212U 20012AL  25354.47998118  .00018445  00000+0  97765-3 0  9993,2 45212  53.0500  17.8908 0001864 180.9450 179.1540 15.15442203323190
STARLINK-1271,45217,53.0559,0.0001352,15.06389179,546.3084113343557,548.1810345522381,1 45217U 20012AR  25354.30244713 -.00000188  00000+0  62654-5 0  9992,2 45217  53.0559  23.0021 0001352  87.9387 272.1757 15.06389179323153
STARLINK-1191,45222,53.0552,0.0001476,15.06395864,546.2020508934183,548.2464175297573,1 45222U 20012AW  25354.31165869  .00000074  00000+0  23854-4 0  9994,2 45222  53.0552   2.9601 0001476  91.5523 268.5635 15.06395864323435
STARLINK-1212,45223,53.0563,0.0001374,15.06405615,546.2428082981114,548.1458893527688,1 45223U 20012AX  25354.39649894  .00001973  00000+0  15127-3 0  9990,2 45223  53.0563   3.2354 0001374  94.1328 265.9818 15.06405615323447
STARLINK-1215,45225,53.0564,0.0001373,15.06394159,546.2786070049306,548.1803126347977,1 45225U 20012AZ  25354.41855035  .00000935  00000+0  81664-4 0  9998,2 45225  53.0564   2.4795 0001373  90.1916 269.9230 15.06394159323406
STARLINK-1221,45227,53.0681,0.0005686,15.38790535,445.80238335756167,453.56698217520443,1 45227U 20012BB  25354.81826047  .00011050  00000+0  29355-3 0  9993,2 45227  53.0681 282.4591 0005686 110.0117 250.1499 15.38790535324557
STARLINK-1222,45228,53.0585,0.0001129,15.36101877,456.8778135710336,458.42133417941386,1 45228U 20012BC  25354.91668980  .02037322  00000+0  51536-1 0  9991,2 45228  53.0585 358.3379 0001129  62.4014 202.6172 15.36101877  5854
STARLINK-1226,45229,53.0579,0.0001722,15.06398341,546.0240966417596,548.4091884362488,1 45229U 20012BD  25354.74660434  .00000596  00000+0  58882-4 0  9994,2 45229  53.0579   1.0068 0001722  87.6398 272.4788 15.06398341323399
STARLINK-1227,45230,53.0575,0.0001361,15.06387643,546.3068855292267,548.191975715642,1 45230U 20012BE  25354.27849002 -.00000038  00000+0  16356-4 0  9996,2 45230  53.0575   3.1093 0001361  91.5367 268.5778 15.06387643323441
STARLINK-1246,45235,53.0557,0.0001358,15.06393935,546.2896814936485,548.1706112105985,1 45235U 20012BK  25354.82400126  .00000124  00000+0  27204-4 0  9991,2 45235  53.0557  40.6592 0001358 103.0006 257.1135 15.06393935322970
STARLINK-1270,45237,53.0534,8.09e-05,15.19992391,505.30667195594833,506.42050325102264,1 45237U 20012BM  25354.91668980  .01717109  00000+0  72004-1 0  9991,2 45237  53.0534 359.9181 0000809 147.7461 143.1959 15.19992391  5697
STARLINK-1279,45360,53.0494,0.0004385,15.42504941,435.7299981030992,441.70838098132845,1 45360U 20019A   25354.80683794  .00062122  00000+0  14087-2 0  9998,2 45360  53.0494 116.8740 0004385 207.6583 152.4189 15.42504941318448
STARLINK-1301,45361,53.0484,0.000483,15.45703245,426.0245112563962,432.60050748244703,1 45361U 20019B   25354.81037356  .00076928  00000+0  15604-2 0  9992,2 45361  53.0484 125.5984 0004830 200.9403 159.1406 15.45703245318332
STARLINK-1306,45362,53.0359,0.0002975,15.92905057,292.1731140736483,296.14312967116257,1 45362U 20019C   25354.91668980  .00262959  37358-4  74705-3 0  9997,2 45362  53.0359 100.8728 0002975   2.4201 236.9446 15.92905057  5995
STARLINK-1262,45366,53.055,0.0001368,15.06402869,546.2553784006086,548.1501513602798,1 45366U 20019G   25354.73921778  .00000471  00000+0  50502-4 0  9996,2 45366  53.0550 161.0370 0001368  89.4996 270.6149 15.06402869317837
STARLINK-1273,45367,53.0542,0.0001309,15.06408927,546.2776735592824,548.0907226489462,1 45367U 20019H   25353.76613906  .00000989  00000+0  85278-4 0  9992,2 45367  53.0542 165.4061 0001309  91.0854 269.0285 15.06408927317688
STARLINK-1276,45368,53.0546,0.0001122,15.06387171,546.4738487347822,548.0279057744374,1 45368U 20019J   25354.73187575 -.00001398  00000+0 -75020-4 0  9990,2 45368  53.0546 161.0714 0001122 101.5193 258.5922 15.06387171317831
STARLINK-1277,45369,53.0543,0.000136,15.06395592,546.2832186151254,548.166917097582,1 45369U 20019K   25354.72456183  .00000059  00000+0  22853-4 0  9991,2 45369  53.0543 161.7322 0001360  92.1887 267.9257 15.06395592317820
STARLINK-1281,45370,53.0546,0.0001312,15.06401687,546.2977824786312,548.1149925835189,1 45370U 20019L   25354.65444161  .00000601  00000+0  59239-4 0  9999,2 45370  53.0546 161.4240 0001312  89.3040 270.8099 15.06401687317827
STARLINK-1300,45374,53.0533,0.0001617,15.06391893,546.1165719575256,548.3562377166509,1 45374U 20019Q   25354.74291771 -.00000998  00000+0 -48141-4 0  9991,2 45374  53.0533 161.0217 0001617  95.0058 265.1115 15.06391893317832
STARLINK-1302,45375,53.0551,0.0001324,15.06395653,546.3079629862013,548.1417988122639,1 45375U 20019R   25354.75765781  .00000409  00000+0  46347-4 0  9991,2 45375  53.0551 160.9555 0001324 100.5622 259.5517 15.06395653317831
STARLINK-1304,45376,53.056,0.0001356,15.06393545,546.2922617071035,548.1704216013595,1 45376U 20019S   25354.77609095  .00000279  00000+0  37605-4 0  9991,2 45376  53.0560 160.8717 0001356  91.7982 268.3163 15.06393545317839
STARLINK-1305,45377,53.0515,0.0007254,15.38400194,445.88585115287606,455.79333039076846,1 45377U 20019T   25354.69884874  .00066400  00000+0  17215-2 0  9994,2 45377  53.0515 148.8820 0007254 167.6233 192.4949 15.38400194318009
STARLINK-1319,45379,53.0515,0.0006009,15.4357754,431.4665476424998,439.65524977716996,1 45379U 20019V   25354.17599262  .00091029  00000+0  19790-2 0  9998,2 45379  53.0515 152.0794 0006009 172.8000 187.3093 15.43577540317913
STARLINK-1266,45383,53.0549,0.0001271,15.06395326,546.345669489694,548.106096734582,1 45383U 20019Z   25354.73001029  .00000403  00000+0  45977-4 0  9998,2 45383  53.0549 141.0842 0001271  94.8331 265.2803 15.06395326318109
STARLINK-1267,45384,53.0538,9.72e-05,15.21791068,499.769569910256,501.1067649228007,1 45384U 20019AA  25354.91668980  .01739382  00000+0  69143-1 0  9998,2 45384  53.0538 140.4265 0000972 125.0287 134.6266 15.21791068  5783
STARLINK-1272,45386,53.0499,0.0005796,15.41975304,436.32811284302534,444.23202190752727,1 45386U 20019AC  25354.79998081  .00079711  00000+0  18325-2 0  9993,2 45386  53.0499 127.5177 0005796 198.7546 161.3245 15.41975304318301
STARLINK-1274,45387,53.0338,0.00012,15.3554906,458.46963036425313,460.1106128734409,1 45387U 20019AD  25354.49393957  .00073522  00000+0  20880-2 0  9995,2 45387  53.0338 118.2812 0001200  82.9537 277.1601 15.35549060318409
STARLINK-1280,45388,53.0498,0.0007026,15.47579504,419.03019242242226,428.5882872786615,1 45388U 20019AE  25354.91668980  .00155502  00000+0  29175-2 0  9999,2 45388  53.0498 144.3247 0007026 163.6285  69.0449 15.47579504  5958
